[
{
"absolute_magnitude": "-0.45",
"aphelion_distance": "49.285",
"arc_length": 40065,
"argument_of_perihelion": "114.33545",
"ascending_node": "110.316513",
"delta_v": 12.7,
"designation": null,
"earth_moid": 28.7835,
"eccentricity": "0.2470823",
"epoch": "2023-09-13.0",
"epoch_jd": "2460200.5",
"first_observation_date_used": "1914-01-23.0",
"first_opposition_used": "1914",
"inclination": "17.14481",
"jupiter_moid": 24.5506,
"last_observation_date_used": "2023-10-03.0",
"last_opposition_used": "2023",
"mars_moid": 28.2458,
"mean_anomaly": "48.98768",
"mean_daily_motion": "0.0039671",
"mercury_moid": 29.3203,
"name": "Pluto",
"number": 134340,
"observations": 9931,
"oppositions": 100,
"orbit_type": 10,
"orbit_uncertainty": "0",
"p_vector_x": "-0.67341893",
"p_vector_y": "-0.73874815",
"p_vector_z": "-0.02753382",
"perihelion_date": "1989-11-21.63486",
"perihelion_date_jd": "2447852.13487",
"perihelion_distance": "29.7553633",
"period": "248.44",
"phase_slope": "0.15",
"q_vector_x": "0.68562607",
"q_vector_y": "-0.61019968",
"q_vector_z": "-0.39695496",
"residual_rms": "0.43",
"saturn_moid": 20.1631,
"semimajor_axis": "39.52007",
"tisserand_jupiter": 5.2,
"updated_at": "2023-10-04T13:33:05Z",
"uranus_moid": 12.0403,
"venus_moid": 29.0532
},
{
"absolute_magnitude": "-1.22",
"aphelion_distance": "97.62",
"arc_length": 25276,
"argument_of_perihelion": "150.86722",
"ascending_node": "36.0771174",
"delta_v": 16.0,
"designation": null,
"earth_moid": 37.7466,
"eccentricity": "0.4323162",
"epoch": "2023-09-13.0",
"epoch_jd": "2460200.5",
"first_observation_date_used": "1954-09-03.0",
"first_opposition_used": "1954",
"inclination": "43.74508",
"jupiter_moid": 33.5011,
"last_observation_date_used": "2023-11-16.0",
"last_opposition_used": "2023",
"mars_moid": 37.1427,
"mean_anomaly": "209.40562",
"mean_daily_motion": "0.0017517",
"mercury_moid": 38.2917,
"name": "Eris",
"number": 136199,
"observations": 2333,
"oppositions": 32,
"orbit_type": 10,
"orbit_uncertainty": "3",
"p_vector_x": "-0.91308716",
"p_vector_y": "-0.34503534",
"p_vector_z": "0.21730726",
"perihelion_date": "2259-01-30.15689",
"perihelion_date_jd": "2546171.6569",
"perihelion_distance": "38.6905763",
"period": "562.66",
"phase_slope": "0.15",
"q_vector_x": "-0.02187412",
"q_vector_y": "-0.49070969",
"q_vector_z": "-0.87104852",
"residual_rms": "0.59",
"saturn_moid": 29.3301,
"semimajor_axis": "68.15516",
"tisserand_jupiter": 4.8,
"updated_at": "2023-11-18T20:37:16Z",
"uranus_moid": 20.8814,
"venus_moid": 37.9996
},
{
"absolute_magnitude": "0.21",
"aphelion_distance": "51.467",
"arc_length": 25009,
"argument_of_perihelion": "240.7029",
"ascending_node": "121.9750586",
"delta_v": 14.2,
"designation": null,
"earth_moid": 33.4031,
"eccentricity": "0.199927",
"epoch": "2023-09-13.0",
"epoch_jd": "2460200.5",
"first_observation_date_used": "1955-03-22.0",
"first_opposition_used": "1955",
"inclination": "28.20948",
"jupiter_moid": 29.7802,
"last_observation_date_used": "2023-09-10.0",
"last_opposition_used": "2023",
"mars_moid": 33.0382,
"mean_anomaly": "219.86571",
"mean_daily_motion": "0.0035087",
"mercury_moid": 33.9706,
"name": "Haumea",
"number": 136108,
"observations": 4094,
"oppositions": 29,
"orbit_type": 10,
"orbit_uncertainty": "2",
"p_vector_x": "0.91104086",
"p_vector_y": "0.15651887",
"p_vector_z": "-0.38145302",
"perihelion_date": "2133-01-18.26154",
"perihelion_date_jd": "2500139.76155",
"perihelion_distance": "34.3164819",
"period": "280.91",
"phase_slope": "0.15",
"q_vector_x": "-0.09602507",
"q_vector_y": "0.98025109",
"q_vector_z": "0.17287852",
"residual_rms": "0.47",
"saturn_moid": 25.4606,
"semimajor_axis": "42.89169",
"tisserand_jupiter": 5.1,
"updated_at": "2023-11-18T20:37:16Z",
"uranus_moid": 16.1347,
"venus_moid": 33.6388
},
{
"absolute_magnitude": "-0.21",
"aphelion_distance": "52.793",
"arc_length": 25025,
"argument_of_perihelion": "296.15701",
"ascending_node": "79.3140463",
"delta_v": 14.3,
"designation": null,
"earth_moid": 36.8822,
"eccentricity": "0.1657637",
"epoch": "2023-09-13.0",
"epoch_jd": "2460200.5",
"first_observation_date_used": "1955-01-29.0",
"first_opposition_used": "1955",
"inclination": "29.02546",
"jupiter_moid": 33.3024,
"last_observation_date_used": "2023-08-05.0",
"last_opposition_used": "2023",
"mars_moid": 36.4961,
"mean_anomaly": "167.82865",
"mean_daily_motion": "0.0032341",
"mercury_moid": 37.4619,
"name": "Makemake",
"number": 136472,
"observations": 4021,
"oppositions": 26,
"orbit_type": 10,
"orbit_uncertainty": "1",
"p_vector_x": "0.85298688",
"p_vector_y": "0.43715389",
"p_vector_z": "-0.28514884",
"perihelion_date": "1881-08-15.15117",
"perihelion_date_jd": "2408307.65117",
"perihelion_distance": "37.7791977",
"period": "304.75",
"phase_slope": "0.15",
"q_vector_x": "-0.21234492",
"q_vector_y": "0.78973718",
"q_vector_z": "0.57552135",
"residual_rms": "0.45",
"saturn_moid": 29.3389,
"semimajor_axis": "45.28597",
"tisserand_jupiter": 5.2,
"updated_at": "2023-11-18T20:37:16Z",
"uranus_moid": 20.2129,
"venus_moid": 37.112
},
{
"absolute_magnitude": "1.85",
"aphelion_distance": "100.693",
"arc_length": 13929,
"argument_of_perihelion": "207.0892",
"ascending_node": "336.8531746",
"delta_v": 13.5,
"designation": null,
"earth_moid": 32.7263,
"eccentricity": "0.4985287",
"epoch": "2023-09-13.0",
"epoch_jd": "2460200.5",
"first_observation_date_used": "1985-08-19.0",
"first_opposition_used": "1985",
"inclination": "30.67888",
"jupiter_moid": 28.4415,
"last_observation_date_used": "2023-10-08.0",
"last_opposition_used": "2023",
"mars_moid": 32.0996,
"mean_anomaly": "109.56117",
"mean_daily_motion": "0.0017894",
"mercury_moid": 33.3181,
"name": "Gonggong",
"number": 225088,
"observations": 446,
"oppositions": 21,
"orbit_type": 10,
"orbit_uncertainty": "3",
"p_vector_x": "-0.97258043",
"p_vector_y": "0.08310984",
"p_vector_z": "-0.21720972",
"perihelion_date": "2406-11-23.41624",
"perihelion_date_jd": "2600159.91625",
"perihelion_distance": "33.6963145",
"period": "550.81",
"phase_slope": "0.15",
"q_vector_x": "0.11773426",
"q_vector_y": "-0.6294987",
"q_vector_z": "-0.76802997",
"residual_rms": "0.47",
"saturn_moid": 24.5649,
"semimajor_axis": "67.19491",
"tisserand_jupiter": 5.4,
"updated_at": "2023-10-09T13:33:01Z",
"uranus_moid": 15.9164,
"venus_moid": 33.0069
},
{
"absolute_magnitude": "2.42",
"aphelion_distance": "45.023",
"arc_length": 25300,
"argument_of_perihelion": "159.9088",
"ascending_node": "189.0991611",
"delta_v": 12.6,
"designation": null,
"earth_moid": 40.5953,
"eccentricity": "0.0395106",
"epoch": "2023-09-13.0",
"epoch_jd": "2460200.5",
"first_observation_date_used": "1954-05-25.0",
"first_opposition_used": "1954",
"inclination": "7.99128",
"jupiter_moid": 36.6403,
"last_observation_date_used": "2023-08-31.0",
"last_opposition_used": "2023",
"mars_moid": 40.2195,
"mean_anomaly": "292.88348",
"mean_daily_motion": "0.0034577",
"mercury_moid": 41.228,
"name": "Quaoar",
"number": 50000,
"observations": 684,
"oppositions": 31,
"orbit_type": 10,
"orbit_uncertainty": "2",
"p_vector_x": "0.98112614",
"p_vector_y": "-0.19091313",
"p_vector_z": "-0.03071945",
"perihelion_date": "2076-11-03.65784",
"perihelion_date_jd": "2479611.15785",
"perihelion_distance": "41.6008798",
"period": "285.05",
"phase_slope": "0.15",
"q_vector_x": "0.19211492",
"q_vector_y": "0.9443224",
"q_vector_z": "0.26710872",
"residual_rms": "0.67",
"saturn_moid": 31.9515,
"semimajor_axis": "43.31217",
"tisserand_jupiter": 5.8,
"updated_at": "2023-11-18T20:36:27Z",
"uranus_moid": 21.5144,
"venus_moid": 40.8779
},
{
"absolute_magnitude": "1.5",
"aphelion_distance": "1007.007",
"arc_length": 12109,
"argument_of_perihelion": "310.83854",
"ascending_node": "144.2969826",
"delta_v": 10.0,
"designation": null,
"earth_moid": 75.3953,
"eccentricity": "0.8590191",
"epoch": "2023-09-13.0",
"epoch_jd": "2460200.5",
"first_observation_date_used": "1990-09-25.0",
"first_opposition_used": "1990",
"inclination": "11.92964",
"jupiter_moid": 71.2731,
"last_observation_date_used": "2023-11-20.0",
"last_opposition_used": "2023",
"mars_moid": 74.8051,
"mean_anomaly": "358.52556",
"mean_daily_motion": "0.0000782",
"mercury_moid": 76.0666,
"name": "Sedna",
"number": 90377,
"observations": 467,
"oppositions": 24,
"orbit_type": 10,
"orbit_uncertainty": "5",
"p_vector_x": "-0.09904762",
"p_vector_y": "0.9638326",
"p_vector_z": "0.24741927",
"perihelion_date": "2075-05-03.16962",
"perihelion_date_jd": "2479060.66962",
"perihelion_distance": "76.367561",
"period": "12607.33",
"phase_slope": "0.15",
"q_vector_x": "-0.98774353",
"q_vector_y": "-0.12537211",
"q_vector_z": "0.0929761",
"residual_rms": "0.56",
"saturn_moid": 67.4173,
"semimajor_axis": "541.68737",
"tisserand_jupiter": 10.2,
"updated_at": "2023-11-21T12:35:43Z",
"uranus_moid": 57.7149,
"venus_moid": 75.6594
}
]
